     2.11           N: GPS NAV DATA                         RINEX VERSION / TYPE
teqc  2018Dec12     gpsops              20220407 01:04:08UTCPGM / RUN BY / DATE
Linux 2.6.32-573.12.1.x86_64|x86_64|gcc -static|Linux 64|=+ COMMENT
CHPI                                    MARKER NAME         COMMENT
41609M003                               MARKER NUMBER       COMMENT
4164613.9484 -4162456.9866 -2445028.7316                    COMMENT
                                                            COMMENT
This data is provided as a public service by NASA/JPL.      COMMENT
No warranty is expressed or implied regarding suitability   COMMENT
for use.  For further information, contact:                 COMMENT
Dave Stowers, NASA/JPL m/s 238-600                          COMMENT
4800 Oak Grove Drive, Pasadena CA 91109 USA                 COMMENT
                                                            END OF HEADER
11 22  4  6  2  0  0.0-4.909839481115D-05 6.025402399246D-12 0.000000000000D+00
    1.640000000000D+02-7.421875000000D+01 4.456614207299D-09-1.986731814097D-01
   -3.803521394730D-06 2.997551346198D-04 8.653849363327D-06 5.153794454575D+03
    2.664000000000D+05-4.284083843231D-08-2.745078481960D+00 3.911554813385D-08
    9.627428915915D-01 2.145937500000D+02 2.692435772791D+00-7.965331788041D-09
    5.785955293977D-11 1.000000000000D+00 2.204000000000D+03 0.000000000000D+00
    2.048000000000D+03 6.300000000000D+01-8.847564458847D-09 6.760000000000D+02
    2.633820000000D+05 4.000000000000D+00
12 22  4  6  1 59 44.0-1.959847286344D-04-5.798028723802D-12 0.000000000000D+00
    7.200000000000D+01 1.056875000000D+02 4.083384375064D-09 2.512907896838D+00
    5.373731255531D-06 8.731976733543D-03 5.785375833511D-06 5.153577791214D+03
    2.663840000000D+05 1.192092895508D-07 1.459577100605D+00-4.656612873077D-08
    9.695477398865D-01 2.711250000000D+02 1.270213069656D+00-7.829611849047D-09
    2.110802209099D-10 1.000000000000D+00 2.204000000000D+03 0.000000000000D+00
    2.000000000000D+00 0.000000000000D+00-1.257285475731D-08 7.200000000000D+01
    2.640660000000D+05 4.000000000000D+00
14 22  4  6  3 29 36.0-1.003155484796D-04-3.069544618484D-12 0.000000000000D+00
    6.000000000000D+01 9.512500000000D+01 4.538760486164D-09-2.938385279016D+00
    5.122274160385D-06 1.670929952525D-03 6.446614861488D-06 5.153657140732D+03
    2.717760000000D+05 0.000000000000D+00 1.427430726608D+00-2.607703208923D-08
    9.529716418826D-01 2.508437500000D+02 3.039381289882D+00-8.123195506556D-09
    2.014369620866D-10 1.000000000000D+00 2.204000000000D+03 0.000000000000D+00
    2.000000000000D+00 0.000000000000D+00-7.450580596924D-09 8.280000000000D+02
    2.646180000000D+05 4.000000000000D+00
13 22  4  6  4  0  0.0 2.892254851758D-04 6.480149750132D-12 0.000000000000D+00
    4.200000000000D+01-1.900000000000D+01 4.695552731476D-09 3.123949293942D-01
   -8.195638656616D-07 5.832516588271D-03 6.437301635742D-06 5.153669147491D+03
    2.736000000000D+05 5.587935447693D-09-5.712990023823D-01 2.980232238770D-08
    9.687285174654D-01 2.568125000000D+02 9.340888102626D-01-8.149268021152D-09
   -3.107272287506D-10 1.000000000000D+00 2.204000000000D+03 0.000000000000D+00
    2.000000000000D+00 0.000000000000D+00-1.117587089539D-08 4.200000000000D+01
    2.664180000000D+05 4.000000000000D+00
19 22  4  6  4  0  0.0 1.406506635249D-04 5.002220859751D-12 0.000000000000D+00
    7.100000000000D+01-2.590625000000D+01 4.179459805563D-09-3.135027412258D+00
   -1.419335603714D-06 9.103305870667D-03 2.622604370117D-06 5.153695735931D+03
    2.736000000000D+05 9.313225746155D-08 2.542502928538D+00 1.732259988785D-07
    9.781280733375D-01 3.311875000000D+02 2.031140066074D+00-7.993547249043D-09
    7.857470152314D-12 1.000000000000D+00 2.204000000000D+03 0.000000000000D+00
    2.000000000000D+00 0.000000000000D+00-1.583248376846D-08 7.100000000000D+01
    2.664180000000D+05 4.000000000000D+00
17 22  4  6  4  0  0.0 5.966983735561D-04 4.888534022029D-12 0.000000000000D+00
    8.300000000000D+01-1.468750000000D+01 4.286607125821D-09 7.226586789147D-01
   -8.847564458847D-07 1.347996701952D-02 3.049150109291D-06 5.153783218384D+03
    2.736000000000D+05-1.695007085800D-07 2.497669021529D+00-6.705522537231D-08
    9.793048519551D-01 3.278437500000D+02-1.491929305713D+00-8.373205920493D-09
   -2.857261873569D-11 1.000000000000D+00 2.204000000000D+03 0.000000000000D+00
    2.800000000000D+00 0.000000000000D+00-1.117587089539D-08 8.300000000000D+01
    2.664180000000D+05 4.000000000000D+00
 6 22  4  6  4  0  0.0 2.566343173385D-04 1.341504685115D-11 0.000000000000D+00
    1.600000000000D+01-7.456250000000D+01 3.871946996420D-09-1.150675373814D+00
   -4.088506102562D-06 2.666861168109D-03 8.337199687958D-06 5.153704156876D+03
    2.736000000000D+05-4.470348358154D-08-2.795981249030D+00-6.891787052155D-08
    9.869818144742D-01 2.357500000000D+02-8.914261779698D-01-7.751037147523D-09
    6.893144269984D-11 1.000000000000D+00 2.204000000000D+03 0.000000000000D+00
    2.000000000000D+00 0.000000000000D+00 3.725290298462D-09 1.600000000000D+01
    2.664180000000D+05 4.000000000000D+00
15 22  4  6  4  0  0.0-7.114093750715D-05 2.955857780762D-12 0.000000000000D+00
    5.800000000000D+01-1.212500000000D+01 5.726309952366D-09-1.702888416938D-01
   -4.339963197708D-07 1.397041243035D-02 5.597248673439D-06 5.153756231308D+03
    2.736000000000D+05-7.823109626770D-08-8.323086226407D-01 1.303851604462D-07
    9.300237851665D-01 2.535937500000D+02 1.083355132947D+00-8.828939189327D-09
   -1.182192100189D-10 1.000000000000D+00 2.204000000000D+03 0.000000000000D+00
    2.000000000000D+00 0.000000000000D+00-1.071020960808D-08 5.800000000000D+01
    2.664180000000D+05 4.000000000000D+00
28 22  4  6  4  0  0.0 3.735902719200D-04-2.614797267597D-12 0.000000000000D+00
    6.100000000000D+01 8.590625000000D+01 4.312322482684D-09 1.245296495323D+00
    4.282221198082D-06 1.665795175359D-02 6.224960088730D-06 5.153689275742D+03
    2.736000000000D+05 5.960464477539D-08 1.481567116097D+00-4.395842552185D-07
    9.686165354752D-01 2.614062500000D+02-1.282824087664D+00-8.111766459061D-09
    1.953652806053D-10 1.000000000000D+00 2.204000000000D+03 0.000000000000D+00
    4.000000000000D+00 6.300000000000D+01-1.117587089539D-08 6.100000000000D+01
    2.664180000000D+05 4.000000000000D+00
24 22  4  6  4  0  0.0 2.601915039122D-04-4.661160346586D-12 0.000000000000D+00
    6.600000000000D+01 1.584375000000D+01 4.963063874389D-09-1.118626997773D+00
    8.232891559601D-07 1.240024203435D-02 9.225681424141D-06 5.153694019318D+03
    2.736000000000D+05 3.129243850708D-07 2.630120274152D-01 2.235174179077D-07
    9.348124470792D-01 1.882500000000D+02 8.128351597899D-01-8.170340327470D-09
   -4.696624204679D-10 1.000000000000D+00 2.204000000000D+03 0.000000000000D+00
    2.000000000000D+00 0.000000000000D+00 2.328306436539D-09 6.600000000000D+01
    2.664180000000D+05 4.000000000000D+00
11 22  4  6  4  0  0.0-4.905508831143D-05 6.025402399246D-12 0.000000000000D+00
    1.650000000000D+02-7.250000000000D+01 4.394825919283D-09 8.490869954015D-01
   -3.762543201447D-06 3.009624779224D-04 8.162111043930D-06 5.153797037125D+03
    2.736000000000D+05-3.725290298462D-08-2.745135771295D+00-7.450580596924D-09
    9.627434577408D-01 2.251562500000D+02 2.694781642392D+00-7.943188008521D-09
    7.000291590243D-11 1.000000000000D+00 2.204000000000D+03 0.000000000000D+00
    2.048000000000D+03 6.300000000000D+01-8.847564458847D-09 6.770000000000D+02
    2.664180000000D+05 4.000000000000D+00
 2 22  4  6  4  0  0.0-6.529372185469D-04-2.273736754432D-13 0.000000000000D+00
    5.700000000000D+01-7.003125000000D+01 4.425898642158D-09-1.272890219981D+00
   -3.328546881676D-06 2.053303003777D-02 8.115544915199D-06 5.153642286301D+03
    2.736000000000D+05-3.948807716370D-07-2.877960539088D+00 3.241002559662D-07
    9.658551122909D-01 2.319062500000D+02-1.426978632256D+00-8.173911904812D-09
    4.714482091388D-11 1.000000000000D+00 2.204000000000D+03 0.000000000000D+00
    2.000000000000D+00 0.000000000000D+00-1.769512891769D-08 5.700000000000D+01
    2.664180000000D+05 4.000000000000D+00
12 22  4  6  3 59 44.0-1.960261724889D-04-5.798028723802D-12 0.000000000000D+00
    7.400000000000D+01 9.662500000000D+01 4.136243719725D-09-2.720002549035D+00
    5.027279257774D-06 8.733287220821D-03 5.636364221573D-06 5.153575311661D+03
    2.735840000000D+05 4.284083843231D-08 1.459521225912D+00-3.352761268616D-08
    9.695491442878D-01 2.758437500000D+02 1.270175607250D+00-7.791395971488D-09
    1.607209803882D-10 1.000000000000D+00 2.204000000000D+03 0.000000000000D+00
    2.000000000000D+00 0.000000000000D+00-1.257285475731D-08 7.400000000000D+01
    2.664180000000D+05 4.000000000000D+00
14 22  4  6  4  0  0.0-1.003211364150D-04-3.069544618484D-12 0.000000000000D+00
    6.100000000000D+01 9.293750000000D+01 4.526617123201D-09-2.672453565549D+00
    4.973262548447D-06 1.671465346590D-03 6.722286343575D-06 5.153656108856D+03
    2.736000000000D+05 2.235174179077D-08 1.427415962839D+00-5.587935447693D-09
    9.529720939243D-01 2.468125000000D+02 3.039498046837D+00-8.102480357972D-09
    1.971510692762D-10 1.000000000000D+00 2.204000000000D+03 0.000000000000D+00
    2.000000000000D+00 0.000000000000D+00-7.450580596924D-09 8.290000000000D+02
    2.664180000000D+05 4.000000000000D+00
30 22  4  6  4  0  0.0-5.224212072790D-04-1.818989403546D-12 0.000000000000D+00
    9.500000000000D+01 1.415625000000D+01 4.834129932344D-09-2.047682758343D+00
    6.090849637985D-07 5.662899231538D-03 9.732320904732D-06 5.153789342880D+03
    2.736000000000D+05-6.519258022308D-08 3.589325347065D-01-5.587935447693D-08
    9.364670454628D-01 1.786562500000D+02-2.726185512318D+00-8.001761876929D-09
   -3.175132257003D-10 1.000000000000D+00 2.204000000000D+03 0.000000000000D+00
    2.000000000000D+00 0.000000000000D+00 3.725290298462D-09 9.500000000000D+01
    2.664180000000D+05 4.000000000000D+00
